{"fetched_at":"2026-03-30T06:02:59Z","count":15439,"tles":[{"name":"SHIJIAN-30B (SJ-30B)","line1":"1 66546U 25266B   26087.78874083  .00011379  00000+0  60858-3 0  9996","line2":"2 66546  51.7967 196.0080 0010676 357.0250   3.0661 15.15459363 19660","category":"Other"}]}